{
  "norad_id": 65785,
  "name": "KUIPER-00172",
  "history": [
    {
      "epoch": "2026-04-16T18:23:49.850016Z",
      "apogee_km": 641.3516319036835,
      "perigee_km": 638.4475683585488,
      "latitude_deg": -4.368709804022055e-05,
      "longitude_deg": 90.39131351865525,
      "height_km": 640.7285508139602,
      "semi_major_axis_km": 7018.036600131116,
      "eccentricity": 0.0002069,
      "inclination_deg": 51.8986,
      "raan_deg": 211.2586,
      "arg_perigee_deg": 93.4034,
      "mean_anomaly_deg": 266.7163,
      "mean_motion_rev_day": 14.76655947
    },
    {
      "epoch": "2026-04-17T15:30:47.827296Z",
      "apogee_km": 641.3197245460515,
      "perigee_km": 638.474894158413,
      "latitude_deg": 6.79579137836551e-05,
      "longitude_deg": 128.9117221701653,
      "height_km": 640.7721776335604,
      "semi_major_axis_km": 7018.034309352232,
      "eccentricity": 0.00020268,
      "inclination_deg": 51.8985,
      "raan_deg": 207.3877,
      "arg_perigee_deg": 95.3279,
      "mean_anomaly_deg": 264.7914,
      "mean_motion_rev_day": 14.7665667
    },
    {
      "epoch": "2026-04-18T12:37:45.624000Z",
      "apogee_km": 641.3144445212347,
      "perigee_km": 638.4677919559144,
      "latitude_deg": -2.1590956545821685e-05,
      "longitude_deg": 167.43282758706758,
      "height_km": 640.82193717783,
      "semi_major_axis_km": 7018.028118238574,
      "eccentricity": 0.00020281,
      "inclination_deg": 51.8985,
      "raan_deg": 203.5169,
      "arg_perigee_deg": 97.5903,
      "mean_anomaly_deg": 262.5288,
      "mean_motion_rev_day": 14.76658624
    },
    {
      "epoch": "2026-04-19T12:59:38.668992Z",
      "apogee_km": 641.3094424246046,
      "perigee_km": 638.4776670957581,
      "latitude_deg": 5.917674141495517e-06,
      "longitude_deg": 156.49490345701122,
      "height_km": 640.8696749108765,
      "semi_major_axis_km": 7018.030554760181,
      "eccentricity": 0.00020175,
      "inclination_deg": 51.8972,
      "raan_deg": 199.0506,
      "arg_perigee_deg": 99.489,
      "mean_anomaly_deg": 260.6299,
      "mean_motion_rev_day": 14.76657855
    },
    {
      "epoch": "2026-04-20T11:44:04.082496Z",
      "apogee_km": 641.300272199559,
      "perigee_km": 638.4894100865449,
      "latitude_deg": 4.942876859894098e-06,
      "longitude_deg": 170.28719669827512,
      "height_km": 640.9132374533996,
      "semi_major_axis_km": 7018.031841143052,
      "eccentricity": 0.00020026,
      "inclination_deg": 51.8974,
      "raan_deg": 194.8827,
      "arg_perigee_deg": 101.3104,
      "mean_anomaly_deg": 258.8082,
      "mean_motion_rev_day": 14.76657449
    },
    {
      "epoch": "2026-04-21T13:43:24.373632Z",
      "apogee_km": 641.2699893517884,
      "perigee_km": 638.5090977095633,
      "latitude_deg": -4.0860442545352264e-05,
      "longitude_deg": 134.62138288542906,
      "height_km": 640.9436918120872,
      "semi_major_axis_km": 7018.026543530676,
      "eccentricity": 0.0001967,
      "inclination_deg": 51.8973,
      "raan_deg": 190.1188,
      "arg_perigee_deg": 103.0338,
      "mean_anomaly_deg": 257.0842,
      "mean_motion_rev_day": 14.76659121
    },
    {
      "epoch": "2026-04-22T09:12:54.524160Z",
      "apogee_km": 641.2512916412625,
      "perigee_km": 638.5184739201077,
      "latitude_deg": 2.1065936735453158e-05,
      "longitude_deg": -162.1278940937303,
      "height_km": 640.974783840138,
      "semi_major_axis_km": 7018.021882780685,
      "eccentricity": 0.0001947,
      "inclination_deg": 51.8978,
      "raan_deg": 186.5456,
      "arg_perigee_deg": 104.7109,
      "mean_anomaly_deg": 255.4068,
      "mean_motion_rev_day": 14.76660592
    },
    {
      "epoch": "2026-04-23T04:42:24.704064Z",
      "apogee_km": 641.2311684088472,
      "perigee_km": 638.5397567944392,
      "latitude_deg": 7.23785019695488e-06,
      "longitude_deg": -98.87695268176753,
      "height_km": 641.0047029744567,
      "semi_major_axis_km": 7018.022462601643,
      "eccentricity": 0.00019175,
      "inclination_deg": 51.8977,
      "raan_deg": 182.9728,
      "arg_perigee_deg": 106.2371,
      "mean_anomaly_deg": 253.8801,
      "mean_motion_rev_day": 14.76660409
    },
    {
      "epoch": "2026-04-24T11:34:07.251168Z",
      "apogee_km": 641.1559481080958,
      "perigee_km": 638.5985837095986,
      "latitude_deg": -2.439113850107527e-05,
      "longitude_deg": 151.27109133261445,
      "height_km": 641.0877525364474,
      "semi_major_axis_km": 7018.014265908847,
      "eccentricity": 0.0001822,
      "inclination_deg": 51.8976,
      "raan_deg": 177.3156,
      "arg_perigee_deg": 111.4367,
      "mean_anomaly_deg": 248.6788,
      "mean_motion_rev_day": 14.76662996
    },
    {
      "epoch": "2026-04-25T10:18:32.225760Z",
      "apogee_km": 641.1144418328868,
      "perigee_km": 638.6202430895755,
      "latitude_deg": 7.493623286025655e-06,
      "longitude_deg": 165.06474517483096,
      "height_km": 641.0756212144971,
      "semi_major_axis_km": 7018.00434246123,
      "eccentricity": 0.0001777,
      "inclination_deg": 51.8975,
      "raan_deg": 173.1472,
      "arg_perigee_deg": 111.8956,
      "mean_anomaly_deg": 248.2194,
      "mean_motion_rev_day": 14.76666128
    },
    {
      "epoch": "2026-04-26T20:25:09.425856Z",
      "apogee_km": 641.0691839178471,
      "perigee_km": 638.6467124216379,
      "latitude_deg": 7.665326491591758e-05,
      "longitude_deg": 5.756437538501654,
      "height_km": 641.1025337260116,
      "semi_major_axis_km": 7017.994948169742,
      "eccentricity": 0.00017259,
      "inclination_deg": 51.8982,
      "raan_deg": 166.8947,
      "arg_perigee_deg": 114.4432,
      "mean_anomaly_deg": 245.671,
      "mean_motion_rev_day": 14.76669093
    },
    {
      "epoch": "2026-04-27T09:24:49.224096Z",
      "apogee_km": 641.0738914986368,
      "perigee_km": 638.6288243547342,
      "latitude_deg": -4.4179242952355315e-05,
      "longitude_deg": 167.92485713732586,
      "height_km": 641.1288442021696,
      "semi_major_axis_km": 7017.988357926685,
      "eccentricity": 0.0001742,
      "inclination_deg": 51.8983,
      "raan_deg": 164.5127,
      "arg_perigee_deg": 115.9031,
      "mean_anomaly_deg": 244.2109,
      "mean_motion_rev_day": 14.76671173
    },
    {
      "epoch": "2026-04-28T19:31:26.046624Z",
      "apogee_km": 641.0465406530038,
      "perigee_km": 638.6407768831787,
      "latitude_deg": -4.562851210238842e-05,
      "longitude_deg": 8.617872576014667,
      "height_km": 641.149962849148,
      "semi_major_axis_km": 7017.980658768091,
      "eccentricity": 0.0001714,
      "inclination_deg": 51.8978,
      "raan_deg": 158.26,
      "arg_perigee_deg": 117.8999,
      "mean_anomaly_deg": 242.2135,
      "mean_motion_rev_day": 14.76673603
    },
    {
      "epoch": "2026-04-29T19:53:17.838816Z",
      "apogee_km": 640.9924387388146,
      "perigee_km": 638.6737014276587,
      "latitude_deg": -5.802072615228921e-06,
      "longitude_deg": -2.3154066271038456,
      "height_km": 641.1650432233076,
      "semi_major_axis_km": 7017.970070083236,
      "eccentricity": 0.0001652,
      "inclination_deg": 51.896,
      "raan_deg": 153.7931,
      "arg_perigee_deg": 120.5102,
      "mean_anomaly_deg": 239.6022,
      "mean_motion_rev_day": 14.76676945
    },
    {
      "epoch": "2026-04-30T07:15:29.986560Z",
      "apogee_km": 641.0003266975218,
      "perigee_km": 638.6632027394962,
      "latitude_deg": 3.8689788434153456e-05,
      "longitude_deg": -175.4174386162038,
      "height_km": 641.177253940439,
      "semi_major_axis_km": 7017.968764718509,
      "eccentricity": 0.00016651,
      "inclination_deg": 51.8961,
      "raan_deg": 151.7086,
      "arg_perigee_deg": 121.0152,
      "mean_anomaly_deg": 239.0973,
      "mean_motion_rev_day": 14.76677357
    },
    {
      "epoch": "2026-05-02T07:59:13.080192Z",
      "apogee_km": 640.9310661748686,
      "perigee_km": 638.7007607389723,
      "latitude_deg": -4.0631324368108685e-05,
      "longitude_deg": 162.7184262880763,
      "height_km": 641.2048276639422,
      "semi_major_axis_km": 7017.95291345692,
      "eccentricity": 0.0001589,
      "inclination_deg": 51.8969,
      "raan_deg": 142.7753,
      "arg_perigee_deg": 125.3547,
      "mean_anomaly_deg": 234.7562,
      "mean_motion_rev_day": 14.7668236
    },
    {
      "epoch": "2026-05-03T11:35:59.278272Z",
      "apogee_km": 640.8679979511116,
      "perigee_km": 638.7530692823811,
      "latitude_deg": 4.7259572786616615e-05,
      "longitude_deg": 102.33038114883342,
      "height_km": 641.1946364174086,
      "semi_major_axis_km": 7017.947533616746,
      "eccentricity": 0.00015068,
      "inclination_deg": 51.8964,
      "raan_deg": 137.7137,
      "arg_perigee_deg": 127.2714,
      "mean_anomaly_deg": 232.8385,
      "mean_motion_rev_day": 14.76684058
    },
    {
      "epoch": "2026-05-04T11:57:50.425920Z",
      "apogee_km": 640.8353697973862,
      "perigee_km": 638.7678850777429,
      "latitude_deg": 1.142497218848714e-05,
      "longitude_deg": 91.40023221066878,
      "height_km": 641.1907651390615,
      "semi_major_axis_km": 7017.938627437564,
      "eccentricity": 0.0001473,
      "inclination_deg": 51.8962,
      "raan_deg": 133.2473,
      "arg_perigee_deg": 128.6316,
      "mean_anomaly_deg": 231.4777,
      "mean_motion_rev_day": 14.76686869
    }
  ]
}